start=new Date('2022-03-09T00:00:00.000Z').valueOf();
sats=[{"MEAN_MOTION_DOT":"0.00007079","NORAD_CAT_ID":"47835","TLE_LINE2":"2 47835  53.0530 340.8266 0001713  56.8147 303.3006 15.06401388 56122","CENTER_NAME":"EARTH","BSTAR":"0.00049363000000","CLASSIFICATION_TYPE":"U","MEAN_MOTION_DDOT":"0.0000000000000","ARG_OF_PERICENTER":"56.8147","MEAN_ELEMENT_THEORY":"SGP4","MEAN_MOTION":"15.06401388","GP_ID":"198239151","ECCENTRICITY":"0.00017130","PERIOD":"95.592","MEAN_ANOMALY":"303.3006","INCLINATION":"53.0530","FILE":"3350976","RA_OF_ASC_NODE":"340.8266","RCS_SIZE":"LARGE","TIME_SYSTEM":"UTC","REF_FRAME":"TEME","TLE_LINE1":"1 47835U 21018BA  22067.45963167  .00007079  00000-0  49363-3 0  9998","OBJECT_TYPE":"PAYLOAD","SITE":"AFETR","REV_AT_EPOCH":"5612","PERIAPSIS":"546.023","APOAPSIS":"548.396","DECAY_DATE":null,"OBJECT_NAME":"STARLINK-2425","EPHEMERIS_TYPE":"0","COUNTRY_CODE":"US","LAUNCH_DATE":"2021-03-11","EPOCH":"2022-03-08T11:01:52.176288","SEMIMAJOR_AXIS":"6925.344","ELEMENT_SET_NO":"999","OBJECT_ID":"2021-018BA"},{"PERIOD":"95.591","MEAN_ANOMALY":"301.5493","ARG_OF_PERICENTER":"58.5654","MEAN_ELEMENT_THEORY":"SGP4","MEAN_MOTION":"15.06410475","GP_ID":"198240403","ECCENTRICITY":"0.00016240","MEAN_MOTION_DDOT":"0.0000000000000","MEAN_MOTION_DOT":"0.00000970","NORAD_CAT_ID":"47836","TLE_LINE2":"2 47836  53.0561 335.8551 0001624  58.5654 301.5493 15.06410475 56207","CENTER_NAME":"EARTH","CLASSIFICATION_TYPE":"U","BSTAR":"0.00008397100000","OBJECT_TYPE":"PAYLOAD","SITE":"AFETR","REF_FRAME":"TEME","TLE_LINE1":"1 47836U 21018BB  22067.45453844  .00000970  00000-0  83971-4 0  9992","RA_OF_ASC_NODE":"335.8551","RCS_SIZE":"LARGE","TIME_SYSTEM":"UTC","INCLINATION":"53.0561","FILE":"3350976","OBJECT_NAME":"STARLINK-2426","APOAPSIS":"548.306","DECAY_DATE":null,"REV_AT_EPOCH":"5620","PERIAPSIS":"546.057","ELEMENT_SET_NO":"999","OBJECT_ID":"2021-018BB","LAUNCH_DATE":"2021-03-11","EPOCH":"2022-03-08T10:54:32.121216","SEMIMAJOR_AXIS":"6925.316","COUNTRY_CODE":"US","EPHEMERIS_TYPE":"0"},{"OBJECT_ID":"2021-018BC","ELEMENT_SET_NO":"999","EPOCH":"2022-03-08T22:28:34.883904","SEMIMAJOR_AXIS":"6925.358","LAUNCH_DATE":"2021-03-11","COUNTRY_CODE":"US","EPHEMERIS_TYPE":"0","OBJECT_NAME":"STARLINK-2427","APOAPSIS":"548.569","DECAY_DATE":null,"PERIAPSIS":"545.877","REV_AT_EPOCH":"5656","SITE":"AFETR","OBJECT_TYPE":"PAYLOAD","TLE_LINE1":"1 47837U 21018BC  22067.93651486  .00002020  00000-0  15447-3 0  9998","REF_FRAME":"TEME","RA_OF_ASC_NODE":"313.6964","TIME_SYSTEM":"UTC","RCS_SIZE":"LARGE","INCLINATION":"53.0529","FILE":"3351330","MEAN_ANOMALY":"314.4195","PERIOD":"95.592","MEAN_MOTION":"15.06396919","ECCENTRICITY":"0.00019430","GP_ID":"198273599","ARG_OF_PERICENTER":"45.6953","MEAN_ELEMENT_THEORY":"SGP4","MEAN_MOTION_DDOT":"0.0000000000000","BSTAR":"0.00015447000000","CLASSIFICATION_TYPE":"U","NORAD_CAT_ID":"47837","MEAN_MOTION_DOT":"0.00002020","CENTER_NAME":"EARTH","TLE_LINE2":"2 47837  53.0529 313.6964 0001943  45.6953 314.4195 15.06396919 56564"},{"RA_OF_ASC_NODE":"333.9259","RCS_SIZE":"LARGE","TIME_SYSTEM":"UTC","INCLINATION":"53.0564","FILE":"3351330","OBJECT_TYPE":"PAYLOAD","SITE":"AFETR","REF_FRAME":"TEME","TLE_LINE1":"1 47838U 21018BD  22067.88307860 -.00001078  00000-0 -53479-4 0  9999","MEAN_MOTION_DDOT":"0.0000000000000","MEAN_MOTION_DOT":"-0.00001078","NORAD_CAT_ID":"47838","TLE_LINE2":"2 47838  53.0564 333.9259 0001667  63.1275 296.9884 15.06383827 56261","CENTER_NAME":"EARTH","CLASSIFICATION_TYPE":"U","BSTAR":"-0.00005347900000","PERIOD":"95.593","MEAN_ANOMALY":"296.9884","ARG_OF_PERICENTER":"63.1275","MEAN_ELEMENT_THEORY":"SGP4","MEAN_MOTION":"15.06383827","ECCENTRICITY":"0.00016670","GP_ID":"198273850","COUNTRY_CODE":"US","EPHEMERIS_TYPE":"0","ELEMENT_SET_NO":"999","OBJECT_ID":"2021-018BD","LAUNCH_DATE":"2021-03-11","EPOCH":"2022-03-08T21:11:37.991040","SEMIMAJOR_AXIS":"6925.398","PERIAPSIS":"546.109","REV_AT_EPOCH":"5626","OBJECT_NAME":"STARLINK-2429","APOAPSIS":"548.418","DECAY_DATE":null},{"BSTAR":"-0.00005898800000","CLASSIFICATION_TYPE":"U","NORAD_CAT_ID":"47839","MEAN_MOTION_DOT":"-0.00001159","TLE_LINE2":"2 47839  53.0540 303.7862 0001460  76.0030 284.1121 15.06379894 56705","CENTER_NAME":"EARTH","MEAN_MOTION_DDOT":"0.0000000000000","MEAN_MOTION":"15.06379894","GP_ID":"198272598","ECCENTRICITY":"0.00014600","ARG_OF_PERICENTER":"76.0030","MEAN_ELEMENT_THEORY":"SGP4","MEAN_ANOMALY":"284.1121","PERIOD":"95.593","INCLINATION":"53.0540","FILE":"3351330","RA_OF_ASC_NODE":"303.7862","RCS_SIZE":"LARGE","TIME_SYSTEM":"UTC","TLE_LINE1":"1 47839U 21018BE  22067.91165257 -.00001159  00000-0 -58988-4 0  9996","REF_FRAME":"TEME","SITE":"AFETR","OBJECT_TYPE":"PAYLOAD","REV_AT_EPOCH":"5670","PERIAPSIS":"546.264","APOAPSIS":"548.286","DECAY_DATE":null,"OBJECT_NAME":"STARLINK-2431","EPHEMERIS_TYPE":"0","COUNTRY_CODE":"US","EPOCH":"2022-03-08T21:52:46.782048","SEMIMAJOR_AXIS":"6925.410","LAUNCH_DATE":"2021-03-11","OBJECT_ID":"2021-018BE","ELEMENT_SET_NO":"999"},{"COUNTRY_CODE":"US","EPHEMERIS_TYPE":"0","ELEMENT_SET_NO":"999","OBJECT_ID":"2021-018BF","LAUNCH_DATE":"2021-03-11","SEMIMAJOR_AXIS":"6925.375","EPOCH":"2022-03-08T20:31:49.606464","REV_AT_EPOCH":"5654","PERIAPSIS":"546.069","OBJECT_NAME":"STARLINK-2432","DECAY_DATE":null,"APOAPSIS":"548.411","TIME_SYSTEM":"UTC","RCS_SIZE":"LARGE","RA_OF_ASC_NODE":"314.0465","FILE":"3351330","INCLINATION":"53.0564","SITE":"AFETR","OBJECT_TYPE":"PAYLOAD","REF_FRAME":"TEME","TLE_LINE1":"1 47840U 21018BF  22067.85543526 -.00003171  00000-0 -19410-3 0  9992","MEAN_MOTION_DDOT":"0.0000000000000","TLE_LINE2":"2 47840  53.0564 314.0465 0001691  63.3085 296.8077 15.06391273 56549","CENTER_NAME":"EARTH","NORAD_CAT_ID":"47840","MEAN_MOTION_DOT":"-0.00003171","CLASSIFICATION_TYPE":"U","BSTAR":"-0.00019410000000","MEAN_ANOMALY":"296.8077","PERIOD":"95.593","MEAN_ELEMENT_THEORY":"SGP4","ARG_OF_PERICENTER":"63.3085","ECCENTRICITY":"0.00016910","GP_ID":"198272848","MEAN_MOTION":"15.06391273"},{"EPOCH":"2022-03-08T20:26:30.984864","SEMIMAJOR_AXIS":"6925.384","LAUNCH_DATE":"2021-03-11","OBJECT_ID":"2021-018BG","ELEMENT_SET_NO":"999","EPHEMERIS_TYPE":"0","COUNTRY_CODE":"US","APOAPSIS":"548.121","DECAY_DATE":null,"OBJECT_NAME":"STARLINK-2433","PERIAPSIS":"546.378","REV_AT_EPOCH":"5654","TLE_LINE1":"1 47841U 21018BG  22067.85174751 -.00000920  00000-0 -42907-4 0  9990","REF_FRAME":"TEME","OBJECT_TYPE":"PAYLOAD","SITE":"AFETR","INCLINATION":"53.0562","FILE":"3351330","RA_OF_ASC_NODE":"314.0611","RCS_SIZE":"LARGE","TIME_SYSTEM":"UTC","MEAN_MOTION":"15.06388280","GP_ID":"198274100","ECCENTRICITY":"0.00012580","ARG_OF_PERICENTER":"68.9842","MEAN_ELEMENT_THEORY":"SGP4","MEAN_ANOMALY":"291.1282","PERIOD":"95.593","CLASSIFICATION_TYPE":"U","BSTAR":"-0.00004290700000","MEAN_MOTION_DOT":"-0.00000920","NORAD_CAT_ID":"47841","CENTER_NAME":"EARTH","TLE_LINE2":"2 47841  53.0562 314.0611 0001258  68.9842 291.1282 15.06388280 56542","MEAN_MOTION_DDOT":"0.0000000000000"},{"APOAPSIS":"548.351","DECAY_DATE":null,"OBJECT_NAME":"STARLINK-2434","PERIAPSIS":"546.239","REV_AT_EPOCH":"5618","LAUNCH_DATE":"2021-03-11","EPOCH":"2022-03-08T21:42:09.709056","SEMIMAJOR_AXIS":"6925.430","ELEMENT_SET_NO":"999","OBJECT_ID":"2021-018BH","EPHEMERIS_TYPE":"0","COUNTRY_CODE":"US","ARG_OF_PERICENTER":"58.9783","MEAN_ELEMENT_THEORY":"SGP4","MEAN_MOTION":"15.06373435","ECCENTRICITY":"0.00015250","GP_ID":"198274351","MEAN_ANOMALY":"301.1356","PERIOD":"95.594","MEAN_MOTION_DOT":"0.00000143","NORAD_CAT_ID":"47842","CENTER_NAME":"EARTH","TLE_LINE2":"2 47842  53.0546 343.8329 0001525  58.9783 301.1356 15.06373435 56181","BSTAR":"0.00002850100000","CLASSIFICATION_TYPE":"U","MEAN_MOTION_DDOT":"0.0000000000000","REF_FRAME":"TEME","TLE_LINE1":"1 47842U 21018BH  22067.90427904  .00000143  00000-0  28501-4 0  9997","SITE":"AFETR","OBJECT_TYPE":"PAYLOAD","INCLINATION":"53.0546","FILE":"3351330","RA_OF_ASC_NODE":"343.8329","RCS_SIZE":"LARGE","TIME_SYSTEM":"UTC"},{"REV_AT_EPOCH":"5615","PERIAPSIS":"546.007","OBJECT_NAME":"STARLINK-2435","DECAY_DATE":null,"APOAPSIS":"548.528","COUNTRY_CODE":"US","EPHEMERIS_TYPE":"0","ELEMENT_SET_NO":"999","OBJECT_ID":"2021-018BJ","LAUNCH_DATE":"2021-03-11","SEMIMAJOR_AXIS":"6925.403","EPOCH":"2022-03-08T11:29:46.501152","MEAN_MOTION_DDOT":"0.0000000000000","CENTER_NAME":"EARTH","TLE_LINE2":"2 47843  53.0557 340.7510 0001820  49.0319 311.0827 15.06382338 56158","NORAD_CAT_ID":"47843","MEAN_MOTION_DOT":"-0.00002124","BSTAR":"-0.00012378000000","CLASSIFICATION_TYPE":"U","PERIOD":"95.593","MEAN_ANOMALY":"311.0827","MEAN_ELEMENT_THEORY":"SGP4","ARG_OF_PERICENTER":"49.0319","GP_ID":"198239152","ECCENTRICITY":"0.00018200","MEAN_MOTION":"15.06382338","TIME_SYSTEM":"UTC","RCS_SIZE":"LARGE","RA_OF_ASC_NODE":"340.7510","FILE":"3350976","INCLINATION":"53.0557","OBJECT_TYPE":"PAYLOAD","SITE":"AFETR","REF_FRAME":"TEME","TLE_LINE1":"1 47843U 21018BJ  22067.47901043 -.00002124  00000-0 -12378-3 0  9998"},{"PERIAPSIS":"546.016","REV_AT_EPOCH":"5626","APOAPSIS":"548.405","DECAY_DATE":null,"OBJECT_NAME":"STARLINK-2446","EPHEMERIS_TYPE":"0","COUNTRY_CODE":"US","EPOCH":"2022-03-08T21:01:00.085152","SEMIMAJOR_AXIS":"6925.346","LAUNCH_DATE":"2021-03-11","OBJECT_ID":"2021-018BK","ELEMENT_SET_NO":"999","CLASSIFICATION_TYPE":"U","BSTAR":"-0.00001843400000","NORAD_CAT_ID":"47844","MEAN_MOTION_DOT":"-0.00000556","CENTER_NAME":"EARTH","TLE_LINE2":"2 47844  53.0571 333.9632 0001725  62.6254 297.4910 15.06400918 56264","MEAN_MOTION_DDOT":"0.0000000000000","MEAN_MOTION":"15.06400918","ECCENTRICITY":"0.00017250","GP_ID":"198273349","ARG_OF_PERICENTER":"62.6254","MEAN_ELEMENT_THEORY":"SGP4","MEAN_ANOMALY":"297.4910","PERIOD":"95.592","INCLINATION":"53.0571","FILE":"3351330","RA_OF_ASC_NODE":"333.9632","TIME_SYSTEM":"UTC","RCS_SIZE":"LARGE","TLE_LINE1":"1 47844U 21018BK  22067.87569543 -.00000556  00000-0 -18434-4 0  9995","REF_FRAME":"TEME","SITE":"AFETR","OBJECT_TYPE":"PAYLOAD"}];
